NORAD_CAT_ID,OBJECT_NAME,OBJECT_TYPE,EPOCH,MEAN_MOTION,ECCENTRICITY,INCLINATION,RA_OF_ASC_NODE,ARG_OF_PERICENTER,MEAN_ANOMALY,BSTAR,MEAN_MOTION_DOT,MEAN_MOTION_DDOT,TLE_LINE0,TLE_LINE1,TLE_LINE2,SEMIMAJOR_AXIS,PERIOD,APOGEE,PERIGEE,DECAYED
53005.0,STARLINK-4288,PAYLOAD,2023-07-01 09:15:44,15.08835638,0.0001144,53.2159,183.8532,85.0046,275.1077,7.3339e-06,-1.71e-06,0.0,0 STARLINK-4288,1 53005U 22076V   23182.38592738 -.00000171  00000-0  73339-5 0  9991,2 53005  53.2159 183.8532 0001144  85.0046 275.1077 15.08835638 55021,6917.894,95.438,540.55,538.967,0.0
53005.0,STARLINK-4288,PAYLOAD,2023-07-02 12:17:17,15.08840353,0.0001178,53.2162,178.7979,84.5432,275.5694,5.1711e-05,5.35e-06,0.0,0 STARLINK-4288,1 53005U 22076V   23183.51200444  .00000535  00000-0  51711-4 0  9999,2 53005  53.2162 178.7979 0001178  84.5432 275.5694 15.08840353 55190,6917.879,95.438,540.559,538.929,0.0
53005.0,STARLINK-4288,PAYLOAD,2023-07-04 02:26:32,15.08841491,0.000119,53.2164,171.6605,86.1601,273.9527,4.2318e-05,3.86e-06,0.0,0 STARLINK-4288,1 53005U 22076V   23185.10176403  .00000386  00000-0  42318-4 0  9990,2 53005  53.2164 171.6605 0001190  86.1601 273.9527 15.08841491 55438,6917.876,95.437,540.564,538.918,0.0
53005.0,STARLINK-4288,PAYLOAD,2023-07-05 05:28:06,15.08837456,0.000134,53.2173,166.6049,94.535,265.5796,-1.9793e-06,-3.19e-06,0.0,0 STARLINK-4288,1 53005U 22076V   23186.22784754 -.00000319  00000-0 -19793-5 0  9998,2 53005  53.2173 166.6049 0001340  94.5350 265.5796 15.08837456 55605,6917.888,95.438,540.68,538.826,0.0
53005.0,STARLINK-4288,PAYLOAD,2023-07-06 08:29:39,15.08840442,0.0001319,53.2171,161.5502,95.7812,264.333,2.0539e-05,3.9e-07,0.0,0 STARLINK-4288,1 53005U 22076V   23187.35392632  .00000039  00000-0  20539-4 0  9999,2 53005  53.2171 161.5502 0001319  95.7812 264.3330 15.08840442 55771,6917.879,95.438,540.657,538.832,0.0
53005.0,STARLINK-4288,PAYLOAD,2023-07-06 14:51:10,15.08849596,0.0001273,53.2165,160.3622,109.0187,251.0943,0.00010059,1.314e-05,0.0,0 STARLINK-4288,1 53005U 22076V   23187.61887662  .00001314  00000-0  10059-3 0  9992,2 53005  53.2165 160.3622 0001273 109.0187 251.0943 15.08849596 55814,6917.851,95.437,540.597,538.835,0.0
53005.0,STARLINK-4288,PAYLOAD,2023-07-07 05:09:40,15.08830244,5.69e-05,53.2167,157.6847,74.461,285.6445,-1.312e-05,-4.96e-06,0.0,0 STARLINK-4288,1 53005U 22076V   23188.21505289 -.00000496  00000-0 -13120-4 0  9996,2 53005  53.2167 157.6847 0000569  74.4610 285.6445 15.08830244 55907,6917.91,95.438,540.169,539.382,0.0
53005.0,STARLINK-4288,PAYLOAD,2023-07-07 17:52:45,15.08838469,0.0001101,53.2165,155.306,103.589,256.5225,-3.4213e-05,-8.32e-06,0.0,0 STARLINK-4288,1 53005U 22076V   23188.74497220 -.00000832  00000-0 -34213-4 0  9999,2 53005  53.2165 155.3060 0001101 103.5890 256.5225 15.08838469 55982,6917.885,95.438,540.512,538.988,0.0
53005.0,STARLINK-4288,PAYLOAD,2023-07-08 05:00:27,15.0884407,0.0001131,53.2161,153.2247,102.1556,257.9563,2.033e-05,3.6e-07,0.0,0 STARLINK-4288,1 53005U 22076V   23189.20864747  .00000036  00000-0  20330-4 0  9992,2 53005  53.2161 153.2247 0001131 102.1556 257.9563 15.08844070 56053,6917.868,95.437,540.515,538.951,0.0
53005.0,STARLINK-4288,PAYLOAD,2023-07-09 03:15:51,15.08829548,0.0001261,53.2161,149.0614,89.9106,270.2031,8.053e-05,9.94e-06,0.0,0 STARLINK-4288,1 53005U 22076V   23190.13601682  .00000994  00000-0  80530-4 0  9994,2 53005  53.2161 149.0614 0001261  89.9106 270.2031 15.08829548 56197,6917.912,95.438,540.65,538.905,0.0
53005.0,STARLINK-4288,PAYLOAD,2023-07-10 03:06:38,15.08839783,0.0001232,53.2161,144.6003,94.6589,265.4543,0.00010918,1.45e-05,0.0,0 STARLINK-4288,1 53005U 22076V   23191.12961360  .00001450  00000-0  10918-3 0  9996,2 53005  53.2161 144.6003 0001232  94.6589 265.4543 15.08839783 56349,6917.881,95.438,540.598,538.894,0.0
53005.0,STARLINK-4288,PAYLOAD,2023-07-11 06:08:12,15.08839812,0.000115,53.2162,139.5448,93.2388,266.8735,0.00010007,1.305e-05,0.0,0 STARLINK-4288,1 53005U 22076V   23192.25569573  .00001305  00000-0  10007-3 0  9999,2 53005  53.2162 139.5448 0001150  93.2388 266.8735 15.08839812 56517,6917.881,95.438,540.542,538.95,0.0
53005.0,STARLINK-4288,PAYLOAD,2023-07-12 05:58:58,15.08850192,0.0001154,53.2167,135.085,89.3526,270.7598,0.00010356,1.361e-05,0.0,0 STARLINK-4288,1 53005U 22076V   23193.24928747  .00001361  00000-0  10356-3 0  9990,2 53005  53.2167 135.0850 0001154  89.3526 270.7598 15.08850192 56665,6917.849,95.437,540.513,538.916,0.0
53005.0,STARLINK-4288,PAYLOAD,2023-07-13 05:49:46,15.08839193,0.0001209,53.2176,130.6243,83.6786,276.4343,9.3109e-06,-1.4e-06,0.0,0 STARLINK-4288,1 53005U 22076V   23194.24289802 -.00000140  00000-0  93109-5 0  9997,2 53005  53.2176 130.6243 0001209  83.6786 276.4343 15.08839193 56814,6917.883,95.438,540.584,538.911,0.0
53005.0,STARLINK-4288,PAYLOAD,2023-07-14 05:40:33,15.08846215,0.0001163,53.2172,126.1633,83.9121,276.2004,3.1083e-05,2.07e-06,0.0,0 STARLINK-4288,1 53005U 22076V   23195.23649420  .00000207  00000-0  31083-4 0  9998,2 53005  53.2172 126.1633 0001163  83.9121 276.2004 15.08846215 56969,6917.861,95.437,540.531,538.922,0.0
53005.0,STARLINK-4288,PAYLOAD,2023-07-15 18:14:25,15.08836998,0.0001425,53.2174,119.3255,85.9332,274.1823,0.00012699,1.734e-05,0.0,0 STARLINK-4288,1 53005U 22076V   23196.76002113  .00001734  00000-0  12699-3 0  9996,2 53005  53.2174 119.3255 0001425  85.9332 274.1823 15.08836998 57191,6917.89,95.438,540.74,538.769,0.0
53005.0,STARLINK-4288,PAYLOAD,2023-07-16 19:40:36,15.08832157,0.0001255,53.2174,114.5673,101.9231,258.1902,9.6362e-05,1.246e-05,0.0,0 STARLINK-4288,1 53005U 22076V   23197.81986394  .00001246  00000-0  96362-4 0  9993,2 53005  53.2174 114.5673 0001255 101.9231 258.1902 15.08832157 57351,6917.904,95.438,540.638,538.901,0.0
53005.0,STARLINK-4288,PAYLOAD,2023-07-17 11:34:26,15.08849053,0.0001162,53.2176,111.5937,88.2504,271.8621,-3.7871e-07,-2.94e-06,0.0,0 STARLINK-4288,1 53005U 22076V   23198.48225647 -.00000294  00000-0 -37871-6 0  9990,2 53005  53.2176 111.5937 0001162  88.2504 271.8621 15.08849053 57454,6917.853,95.437,540.522,538.914,0.0
53005.0,STARLINK-4288,PAYLOAD,2023-07-19 03:19:06,15.08838449,0.000137,53.2167,104.16,81.9345,278.1802,2.4335e-05,9.9e-07,0.0,0 STARLINK-4288,1 53005U 22076V   23200.13826428  .00000099  00000-0  24335-4 0  9990,2 53005  53.2167 104.1600 0001370  81.9345 278.1802 15.08838449 57709,6917.885,95.438,540.698,538.802,0.0
53005.0,STARLINK-4288,PAYLOAD,2023-07-20 17:28:21,15.08837377,0.0001345,53.217,97.0216,96.202,263.9125,0.00013942,1.932e-05,0.0,0 STARLINK-4288,1 53005U 22076V   23201.72802721  .00001932  00000-0  13942-3 0  9994,2 53005  53.2170  97.0216 0001345  96.2020 263.9125 15.08837377 57942,6917.888,95.438,540.684,538.823,0.0
53005.0,STARLINK-4288,PAYLOAD,2023-07-21 01:25:16,15.08844373,0.0001236,53.2167,95.5361,85.8675,274.2459,0.00018736,2.696e-05,0.0,0 STARLINK-4288,1 53005U 22076V   23202.05922147  .00002696  00000-0  18736-3 0  9990,2 53005  53.2167  95.5361 0001236  85.8675 274.2459 15.08844373 57995,6917.867,95.437,540.587,538.877,0.0
53005.0,STARLINK-4288,PAYLOAD,2023-07-24 02:33:01,15.08851159,0.0001235,53.2178,81.8576,128.5619,231.5484,-0.00020057,-3.479e-05,0.0,0 STARLINK-4288,1 53005U 22076V   23205.10626835 -.00003479  00000-0 -20057-3 0  9995,2 53005  53.2178  81.8576 0001235 128.5619 231.5484 15.08851159 57988,6917.846,95.437,540.566,538.857,0.0
53005.0,STARLINK-4288,PAYLOAD,2023-07-26 00:39:12,15.0884422,9.07e-05,53.2187,73.2352,98.4971,261.6124,0.00012143,1.646e-05,0.0,0 STARLINK-4288,1 53005U 22076V   23207.02722981  .00001646  00000-0  12143-3 0  9996,2 53005  53.2187  73.2352 0000907  98.4971 261.6124 15.08844220 58275,6917.867,95.437,540.36,539.105,0.0
53005.0,STARLINK-4288,PAYLOAD,2023-07-26 21:19:13,15.08846123,0.0001013,53.2175,69.3695,90.1045,270.0063,0.00011092,1.478e-05,0.0,0 STARLINK-4288,1 53005U 22076V   23207.88834699  .00001478  00000-0  11092-3 0  9995,2 53005  53.2175  69.3695 0001013  90.1045 270.0063 15.08846123 58403,6917.862,95.437,540.427,539.026,0.0
53005.0,STARLINK-4288,PAYLOAD,2023-07-27 14:48:28,15.08833688,0.0001139,53.2164,66.0969,91.8679,268.2443,-2.7741e-05,-7.29e-06,0.0,0 STARLINK-4288,1 53005U 22076V   23208.61699812 -.00000729  00000-0 -27741-4 0  9992,2 53005  53.2164  66.0969 0001139  91.8679 268.2443 15.08833688 58514,6917.9,95.438,540.553,538.977,0.0
53005.0,STARLINK-4288,PAYLOAD,2023-07-27 21:10:01,15.08829475,0.0001251,53.2168,64.9098,71.3859,288.7268,-4.7101e-05,-1.037e-05,0.0,0 STARLINK-4288,1 53005U 22076V   23208.88196279 -.00001037  00000-0 -47101-4 0  9995,2 53005  53.2168  64.9098 0001251  71.3859 288.7268 15.08829475 58551,6917.913,95.438,540.643,538.912,0.0
53005.0,STARLINK-4288,PAYLOAD,2023-07-28 00:20:47,15.08828588,0.0001165,53.2173,64.3151,72.9762,287.1358,-5.3262e-05,-1.135e-05,0.0,0 STARLINK-4288,1 53005U 22076V   23209.01444398 -.00001135  00000-0 -53262-4 0  9993,2 53005  53.2173  64.3151 0001165  72.9762 287.1358 15.08828588 59047,6917.915,95.438,540.586,538.974,0.0
53005.0,STARLINK-4288,PAYLOAD,2023-07-28 13:03:52,15.08836733,0.0001104,53.2196,61.9349,82.6361,277.4757,6.4638e-06,-1.85e-06,0.0,0 STARLINK-4288,1 53005U 22076V   23209.54435843 -.00000185  00000-0  64638-5 0  9999,2 53005  53.2196  61.9349 0001104  82.6361 277.4757 15.08836733 58652,6917.89,95.438,540.519,538.992,0.0
53005.0,STARLINK-4288,PAYLOAD,2023-07-28 14:39:15,15.08853019,0.0001206,53.2193,61.6383,83.8049,276.308,-0.00016231,-2.871e-05,0.0,0 STARLINK-4288,1 53005U 22076V   23209.61059700 -.00002871  00000-0 -16231-3 0  9990,2 53005  53.2193  61.6383 0001206  83.8049 276.3080 15.08853019 59130,6917.841,95.437,540.54,538.871,0.0
53005.0,STARLINK-4288,PAYLOAD,2023-07-29 19:16:11,15.088361,0.0001133,53.2167,56.2846,72.503,287.6086,0.00014958,2.093e-05,0.0,0 STARLINK-4288,1 53005U 22076V   23210.80291631  .00002093  00000-0  14958-3 0  9992,2 53005  53.2167  56.2846 0001133  72.5030 287.6086 15.08836100 59312,6917.892,95.438,540.541,538.974,0.0
